0 IRIDIUM 33 DEB
1 34899U 97051NB  13281.36222370  .00005633  00000-0  19400-2 0  8469
2 34899 086.4049 139.8234 0058033 004.3214 119.1683 14.34866987234317
0 IRIDIUM 33 DEB
1 34899U 97051NB  13282.60621418  .00007915  00000-0  27265-2 0  8477
2 34899 086.4058 139.3046 0057918 000.4805 064.8497 14.34892714234492
0 IRIDIUM 33 DEB
1 34899U 97051NB  13284.08936939  .00007645  00000-0  26330-2 0  8481
2 34899 086.4055 138.6842 0057662 356.3563 165.5513 14.34907184234705
0 IRIDIUM 33 DEB
1 34899U 97051NB  13286.04007458  .00007286  00000-0  25080-2 0  8497
2 34899 086.4051 137.8696 0057447 350.4535 161.8860 14.34937049234981
0 IRIDIUM 33 DEB
1 34899U 97051NB  13288.60083159  .00011265  00000-0  38764-2 0  8500
2 34899 086.4035 136.7994 0056987 341.6933 070.7900 14.34986929235350
0 IRIDIUM 33 DEB
1 34899U 97051NB  13290.35724775  .00012011  00000-0  41313-2 0  8516
2 34899 086.4029 136.0659 0056751 336.0207 144.3927 14.35015757235603
0 IRIDIUM 33 DEB
1 34899U 97051NB  13292.03689685  .00009209  00000-0  31659-2 0  8521
2 34899 086.4028 135.3652 0056396 330.6133 181.5892 14.35047950235840
0 IRIDIUM 33 DEB
1 34899U 97051NB  13293.54673083  .00010336  00000-0  35524-2 0  8532
2 34899 086.4029 134.7345 0056182 325.7827 061.6285 14.35073052236062
0 IRIDIUM 33 DEB
1 34899U 97051NB  13295.03528718  .00011331  00000-0  38926-2 0  8548
2 34899 086.4031 134.1128 0056031 320.8712 192.0322 14.35097632236274
